[{"OBJECT_NAME":"STARLINK-3098","OBJECT_ID":"2021-104AL","EPOCH":"2026-03-09T21:11:35.394720","MEAN_MOTION":15.08837919,"ECCENTRICITY":0.00012088,"INCLINATION":53.2166,"RA_OF_ASC_NODE":208.253,"ARG_OF_PERICENTER":92.3896,"MEAN_ANOMALY":267.7235,"EPHEMERIS_TYPE":0,"CLASSIFICATION_TYPE":"U","NORAD_CAT_ID":49442,"ELEMENT_SET_NO":999,"REV_AT_EPOCH":23894,"BSTAR":3.3643913e-5,"MEAN_MOTION_DOT":2.48e-6,"MEAN_MOTION_DDOT":0},{"OBJECT_NAME":"PRSC-S1","OBJECT_ID":"2025-164A","EPOCH":"2026-03-09T14:34:55.095168","MEAN_MOTION":15.0891951,"ECCENTRICITY":0.0004466,"INCLINATION":41.129,"RA_OF_ASC_NODE":129.3637,"ARG_OF_PERICENTER":348.3012,"MEAN_ANOMALY":11.7698,"EPHEMERIS_TYPE":0,"CLASSIFICATION_TYPE":"U","NORAD_CAT_ID":65055,"ELEMENT_SET_NO":999,"REV_AT_EPOCH":3340,"BSTAR":0.00046631,"MEAN_MOTION_DOT":7.316e-5,"MEAN_MOTION_DDOT":0}]
